[{"OBJECT_NAME":"CENTAURI-8","OBJECT_ID":"2025-009DK","EPOCH":"2026-03-09T17:25:58.526112","MEAN_MOTION":14.9722833,"ECCENTRICITY":0.00030201,"INCLINATION":97.7096,"RA_OF_ASC_NODE":150.1876,"ARG_OF_PERICENTER":109.5881,"MEAN_ANOMALY":250.5667,"EPHEMERIS_TYPE":0,"CLASSIFICATION_TYPE":"U","NORAD_CAT_ID":62714,"ELEMENT_SET_NO":999,"REV_AT_EPOCH":6259,"BSTAR":0.00038891127,"MEAN_MOTION_DOT":4.445e-5,"MEAN_MOTION_DDOT":0},{"OBJECT_NAME":"STARLINK-32910","OBJECT_ID":"2025-037N","EPOCH":"2026-03-09T23:21:53.835264","MEAN_MOTION":14.98327777,"ECCENTRICITY":0.00025697,"INCLINATION":70.0042,"RA_OF_ASC_NODE":353.7719,"ARG_OF_PERICENTER":252.3514,"MEAN_ANOMALY":107.7365,"EPHEMERIS_TYPE":0,"CLASSIFICATION_TYPE":"U","NORAD_CAT_ID":63089,"ELEMENT_SET_NO":999,"REV_AT_EPOCH":5864,"BSTAR":0.0013295656,"MEAN_MOTION_DOT":0.00015806,"MEAN_MOTION_DDOT":0}]
